{
  "type": "FeatureCollection",
  "features": [
    {
      "type": "Feature",
      "geometry": {
        "type": "Point",
        "coordinates": [
          -1.379008,
          47.295597
        ]
      },
      "properties": {
        "code_station": "M622001010",
        "nom_station": "La Loire à Mauves-sur-Loire",
        "commune": "MAUVES-SUR-LOIRE",
        "cours_eau": "la Loire",
        "grandeur": "H",
        "date_derniere": "2026-08-24T18:00:00+00:00",
        "valeur_actuelle": 4.927,
        "unite": "m",
        "delta_1h": -0.29600000000000026,
        "delta_3h": -0.4820000000000002,
        "delta_6h": 0.9489999999999994,
        "tendance": "baisse",
        "qualification": "Non qualifiée",
        "statut": "Brute",
        "niveau_dynamique": null,
        "libelle_dynamique": "ANALYSE_MAREE_REQUISE",
        "vitesse_1h_m_h": -0.296,
        "vitesse_3h_m_h": -0.161,
        "vitesse_6h_m_h": 0.158,
        "tendance_courte": "BAISSE",
        "retournement": "HAUSSE_PUIS_BAISSE",
        "motif": "Station influencée par la marée : les variations brutes ne sont pas interprétées comme un niveau de risque hydrologique. Niveau brut actuellement en baisse. Retournement significatif : niveau supérieur à H-6 mais baisse récente.",
        "date_calcul": "2026-08-24T18:27:39Z"
      }
    },
    {
      "type": "Feature",
      "geometry": {
        "type": "Point",
        "coordinates": [
          -1.566759,
          47.208809
        ]
      },
      "properties": {
        "code_station": "M800001010",
        "nom_station": "La Loire à Nantes - Pont Anne de Bretagne",
        "commune": "NANTES",
        "cours_eau": "la Loire",
        "grandeur": "H",
        "date_derniere": "2026-08-24T18:00:00+00:00",
        "valeur_actuelle": 3.988,
        "unite": "m",
        "delta_1h": -0.5450000000000004,
        "delta_3h": -1.5370000000000004,
        "delta_6h": -0.629,
        "tendance": "baisse",
        "qualification": "Non qualifiée",
        "statut": "Brute",
        "niveau_dynamique": null,
        "libelle_dynamique": "ANALYSE_MAREE_REQUISE",
        "vitesse_1h_m_h": -0.545,
        "vitesse_3h_m_h": -0.512,
        "vitesse_6h_m_h": -0.105,
        "tendance_courte": "BAISSE",
        "retournement": null,
        "motif": "Station influencée par la marée : les variations brutes ne sont pas interprétées comme un niveau de risque hydrologique. Niveau brut actuellement en baisse.",
        "date_calcul": "2026-08-24T18:27:39Z"
      }
    },
    {
      "type": "Feature",
      "geometry": {
        "type": "Point",
        "coordinates": [
          -1.531964,
          47.121541
        ]
      },
      "properties": {
        "code_station": "M820502010",
        "nom_station": "L'Ognon aux Sorinières [Villeneuve]",
        "commune": "SORINIERES",
        "cours_eau": "l'Ognon",
        "grandeur": "H",
        "date_derniere": "2026-08-24T18:00:00+00:00",
        "valeur_actuelle": 3.313,
        "unite": "m",
        "delta_1h": -0.004999999999999893,
        "delta_3h": -0.005999999999999783,
        "delta_6h": -0.0009999999999998899,
        "tendance": "stable",
        "qualification": "Non qualifiée",
        "statut": "Brute",
        "niveau_dynamique": 0.0,
        "libelle_dynamique": "STABLE",
        "vitesse_1h_m_h": -0.005,
        "vitesse_3h_m_h": -0.002,
        "vitesse_6h_m_h": 0.0,
        "tendance_courte": "STABLE",
        "retournement": null,
        "motif": "Dynamique récente : STABLE ; variation 1 h = -0.005 m/h",
        "date_calcul": "2026-08-24T18:27:39Z"
      }
    },
    {
      "type": "Feature",
      "geometry": {
        "type": "Point",
        "coordinates": [
          -1.531964,
          47.121541
        ]
      },
      "properties": {
        "code_station": "M820502010",
        "nom_station": "L'Ognon aux Sorinières [Villeneuve]",
        "commune": "SORINIERES",
        "cours_eau": "l'Ognon",
        "grandeur": "Q",
        "date_derniere": "2026-08-24T16:30:00+00:00",
        "valeur_actuelle": 2.0,
        "unite": null,
        "delta_1h": -45.0,
        "delta_3h": null,
        "delta_6h": null,
        "tendance": "baisse",
        "qualification": "Douteuse",
        "statut": "Brute",
        "niveau_dynamique": 0.0,
        "libelle_dynamique": "BAISSE",
        "vitesse_1h_m_h": -45.0,
        "vitesse_3h_m_h": null,
        "vitesse_6h_m_h": null,
        "tendance_courte": "BAISSE",
        "retournement": null,
        "motif": "Dynamique récente : BAISSE ; variation 1 h = -45.000 m/h",
        "date_calcul": "2026-08-24T18:27:39Z"
      }
    },
    {
      "type": "Feature",
      "geometry": {
        "type": "Point",
        "coordinates": [
          -1.482471,
          47.165241
        ]
      },
      "properties": {
        "code_station": "M750242010",
        "nom_station": "La Sèvre Nantaise à Vertou",
        "commune": "VERTOU",
        "cours_eau": "la Sèvre Nantaise",
        "grandeur": "H",
        "date_derniere": "2026-08-24T17:50:00+00:00",
        "valeur_actuelle": -0.198,
        "unite": "m",
        "delta_1h": -0.0050000000000000044,
        "delta_3h": -0.0010000000000000009,
        "delta_6h": 0.0030000000000000027,
        "tendance": "stable",
        "qualification": "Non qualifiée",
        "statut": "Brute",
        "niveau_dynamique": 0.0,
        "libelle_dynamique": "STABLE",
        "vitesse_1h_m_h": -0.005,
        "vitesse_3h_m_h": 0.0,
        "vitesse_6h_m_h": 0.001,
        "tendance_courte": "STABLE",
        "retournement": null,
        "motif": "Dynamique récente : STABLE ; variation 1 h = -0.005 m/h",
        "date_calcul": "2026-08-24T18:27:39Z"
      }
    }
  ]
}
