{
  "type": "FeatureCollection",
  "features": [
    {
      "type": "Feature",
      "geometry": {
        "type": "Point",
        "coordinates": [
          -1.771667,
          47.472833
        ]
      },
      "properties": {
        "id_station": "44015001",
        "nom_station": "BLAIN",
        "altitude_m": 13.0,
        "date_observation": "2026-08-24T18:18:00Z",
        "temperature_c": 19.4,
        "point_rosee_c": null,
        "humidite_pct": null,
        "direction_vent_deg": null,
        "vent_ms": null,
        "vent_kmh": null,
        "rafale_10min_ms": null,
        "rafale_10min_kmh": null,
        "direction_rafale_deg": null,
        "pluie_mm": 0.0,
        "pression_hpa": null,
        "pression_mer_hpa": null,
        "date_collecte": "2026-08-24T18:26:20Z"
      }
    },
    {
      "type": "Feature",
      "geometry": {
        "type": "Point",
        "coordinates": [
          -1.608833,
          47.15
        ]
      },
      "properties": {
        "id_station": "44020001",
        "nom_station": "NANTES-BOUGUENAIS",
        "altitude_m": 26.0,
        "date_observation": "2026-08-24T18:18:00Z",
        "temperature_c": 20.1,
        "point_rosee_c": 16.5,
        "humidite_pct": 80.0,
        "direction_vent_deg": 10.0,
        "vent_ms": 1.5,
        "vent_kmh": 5.4,
        "rafale_10min_ms": 2.3,
        "rafale_10min_kmh": 8.3,
        "direction_rafale_deg": 20.0,
        "pluie_mm": 0.0,
        "pression_hpa": 1004.0,
        "pression_mer_hpa": 1007.0,
        "date_collecte": "2026-08-24T18:26:20Z"
      }
    },
    {
      "type": "Feature",
      "geometry": {
        "type": "Point",
        "coordinates": [
          -1.514,
          47.227667
        ]
      },
      "properties": {
        "id_station": "44109012",
        "nom_station": "NANTES-VILLE",
        "altitude_m": 17.0,
        "date_observation": "2026-08-24T18:18:00Z",
        "temperature_c": 20.0,
        "point_rosee_c": null,
        "humidite_pct": null,
        "direction_vent_deg": null,
        "vent_ms": null,
        "vent_kmh": null,
        "rafale_10min_ms": null,
        "rafale_10min_kmh": null,
        "direction_rafale_deg": null,
        "pluie_mm": 0.0,
        "pression_hpa": null,
        "pression_mer_hpa": null,
        "date_collecte": "2026-08-24T18:26:20Z"
      }
    },
    {
      "type": "Feature",
      "geometry": {
        "type": "Point",
        "coordinates": [
          -1.513667,
          47.425167
        ]
      },
      "properties": {
        "id_station": "44110002",
        "nom_station": "NORT-SUR-ERDRE",
        "altitude_m": 13.0,
        "date_observation": "2026-08-24T18:18:00Z",
        "temperature_c": 19.3,
        "point_rosee_c": 16.7,
        "humidite_pct": 85.0,
        "direction_vent_deg": 60.0,
        "vent_ms": 3.5,
        "vent_kmh": 12.6,
        "rafale_10min_ms": 4.9,
        "rafale_10min_kmh": 17.6,
        "direction_rafale_deg": 70.0,
        "pluie_mm": 0.0,
        "pression_hpa": null,
        "pression_mer_hpa": null,
        "date_collecte": "2026-08-24T18:26:20Z"
      }
    },
    {
      "type": "Feature",
      "geometry": {
        "type": "Point",
        "coordinates": [
          -1.336833,
          47.1415
        ]
      },
      "properties": {
        "id_station": "44117002",
        "nom_station": "LE PALLET_SAPC",
        "altitude_m": 35.0,
        "date_observation": "2026-08-24T18:18:00Z",
        "temperature_c": 21.4,
        "point_rosee_c": null,
        "humidite_pct": null,
        "direction_vent_deg": null,
        "vent_ms": null,
        "vent_kmh": null,
        "rafale_10min_ms": null,
        "rafale_10min_kmh": null,
        "direction_rafale_deg": null,
        "pluie_mm": 0.0,
        "pression_hpa": null,
        "pression_mer_hpa": null,
        "date_collecte": "2026-08-24T18:26:20Z"
      }
    },
    {
      "type": "Feature",
      "geometry": {
        "type": "Point",
        "coordinates": [
          -1.828667,
          47.210333
        ]
      },
      "properties": {
        "id_station": "44120002",
        "nom_station": "PELLERIN(LE)",
        "altitude_m": 4.0,
        "date_observation": "2026-08-24T18:00:00Z",
        "temperature_c": 19.3,
        "point_rosee_c": null,
        "humidite_pct": null,
        "direction_vent_deg": null,
        "vent_ms": null,
        "vent_kmh": null,
        "rafale_10min_ms": null,
        "rafale_10min_kmh": null,
        "direction_rafale_deg": null,
        "pluie_mm": 0.0,
        "pression_hpa": null,
        "pression_mer_hpa": null,
        "date_collecte": "2026-08-24T18:26:20Z"
      }
    },
    {
      "type": "Feature",
      "geometry": {
        "type": "Point",
        "coordinates": [
          -1.7825,
          47.005667
        ]
      },
      "properties": {
        "id_station": "44181001",
        "nom_station": "ST-MEME-LE-TENU",
        "altitude_m": 4.0,
        "date_observation": "2026-08-24T18:18:00Z",
        "temperature_c": 20.9,
        "point_rosee_c": 16.5,
        "humidite_pct": 76.0,
        "direction_vent_deg": 60.0,
        "vent_ms": 1.3,
        "vent_kmh": 4.7,
        "rafale_10min_ms": 2.6,
        "rafale_10min_kmh": 9.4,
        "direction_rafale_deg": 70.0,
        "pluie_mm": 0.0,
        "pression_hpa": null,
        "pression_mer_hpa": null,
        "date_collecte": "2026-08-24T18:26:20Z"
      }
    },
    {
      "type": "Feature",
      "geometry": {
        "type": "Point",
        "coordinates": [
          -1.652833,
          47.029167
        ]
      },
      "properties": {
        "id_station": "44188001",
        "nom_station": "ST-PHILBERT",
        "altitude_m": 18.0,
        "date_observation": "2026-08-24T18:18:00Z",
        "temperature_c": 20.8,
        "point_rosee_c": null,
        "humidite_pct": null,
        "direction_vent_deg": null,
        "vent_ms": null,
        "vent_kmh": null,
        "rafale_10min_ms": null,
        "rafale_10min_kmh": null,
        "direction_rafale_deg": null,
        "pluie_mm": 0.0,
        "pression_hpa": null,
        "pression_mer_hpa": null,
        "date_collecte": "2026-08-24T18:26:20Z"
      }
    },
    {
      "type": "Feature",
      "geometry": {
        "type": "Point",
        "coordinates": [
          -1.482667,
          46.956667
        ]
      },
      "properties": {
        "id_station": "85190001",
        "nom_station": "ROCHESERVIERE",
        "altitude_m": 43.0,
        "date_observation": "2026-08-24T18:18:00Z",
        "temperature_c": 20.9,
        "point_rosee_c": null,
        "humidite_pct": null,
        "direction_vent_deg": null,
        "vent_ms": null,
        "vent_kmh": null,
        "rafale_10min_ms": null,
        "rafale_10min_kmh": null,
        "direction_rafale_deg": null,
        "pluie_mm": 0.0,
        "pression_hpa": null,
        "pression_mer_hpa": null,
        "date_collecte": "2026-08-24T18:26:20Z"
      }
    }
  ]
}
